STARLINK-1913           
1 47179U 20088BK  24117.36156489  .00001870  00000+0  14438-3 0  9991
2 47179  53.0532 134.7071 0001211  98.8270 261.2857 15.06409557189102
STARLINK-1927           
1 47181U 20088BM  24117.58335648  .00257592  00000+0  44588-2 0  9996
2 47181  53.0738  45.3453 0007608  86.4697 192.4275 15.49476891190402
STARLINK-2011           
1 47350U 21005B   24117.59202042  .00113453  00000+0  90173-3 0  9995
2 47350  53.0512 225.3857 0001239  53.0887 307.0243 15.70413501181157
STARLINK-2017           
1 47351U 21005C   24117.53479736 -.00000187  00000+0  63704-5 0  9998
2 47351  53.0541 203.9199 0001449  74.2946 285.8202 15.06387794181448
STARLINK-2034           
1 47352U 21005D   24117.55417443  .00005586  00000+0  39371-3 0  9996
2 47352  53.0546 243.8441 0001475  95.8541 264.2616 15.06387439180889
STARLINK-2045           
1 47353U 21005E   24117.50946539  .00001467  00000+0  11736-3 0  9994
2 47353  53.0526 189.0404 0001349  83.5912 276.5230 15.06391717181652
STARLINK-2046           
1 47354U 21005F   24117.50771781 -.00003527  00000+0 -21813-3 0  9998
2 47354  53.0545 209.5842 0001525  83.1110 277.0053 15.06372465181366
STARLINK-2047           
1 47355U 21005G   24117.21230286  .00001233  00000+0  10167-3 0  9997
2 47355  53.0549 195.3761 0001529  79.1519 280.9642 15.06391914181531
STARLINK-2049           
1 47356U 21005H   24117.52375750  .00006301  00000+0  44140-3 0  9997
2 47356  53.0546 213.9761 0001527  86.6241 273.4923 15.06409773181597
STARLINK-2050           
1 47357U 21005J   24117.50630113  .00000337  00000+0  41535-4 0  9992
2 47357  53.0562 244.4835 0001479  92.9523 267.1636 15.06394130181160
STARLINK-2055           
1 47358U 21005K   24117.53387642  .00005343  00000+0  37732-3 0  9997
2 47358  53.0537 213.9200 0001350  92.5456 267.5687 15.06396662181598
STARLINK-2069           
1 47359U 21005L   24117.54533370 -.00005932  00000+0 -37984-3 0  9995
2 47359  53.0564 238.8778 0001411  87.4317 272.6833 15.06380907180956
STARLINK-2070           
1 47360U 21005M   24116.50927907  .00007366  00000+0  65570-4 0  9999
2 47360  53.0525 198.8134 0001347  82.6125 277.5044 15.69720089180774
STARLINK-2071           
1 47361U 21005N   24117.54219840  .00028360  00000+0  19161-2 0  9995
2 47361  53.0543 213.8959 0001809  81.3368 278.7826 15.06381992181595
STARLINK-2076           
1 47362U 21005P   24117.52099742 -.00002170  00000+0 -12684-3 0  9998
2 47362  53.0550 243.9889 0001395 101.2778 258.8368 15.06390435180228
STARLINK-2077           
1 47363U 21005Q   24117.52469736  .00020531  00000+0  13934-2 0  9990
2 47363  53.0545 243.9704 0001339  85.2162 274.8980 15.06395408180228
STARLINK-2081           
1 47366U 21005T   24117.55045351  .00001562  00000+0  12365-3 0  9990
2 47366  53.0559 243.8633 0000821  90.4194 269.6889 15.06420123180227
STARLINK-2082           
1 47367U 21005U   24117.50993838  .00009447  00000+0  65180-3 0  9991
2 47367  53.0544 244.0407 0001080  89.0054 271.1058 15.06427445180221
STARLINK-2084           
1 47368U 21005V   24117.50255904  .00009043  00000+0  62553-3 0  9990
2 47368  53.0566 244.0641 0001692 113.6633 246.4533 15.06380516181166
STARLINK-2085           
1 47369U 21005W   24117.51077651  .00018146  00000+0  15387-3 0  9990
2 47369  53.0533 204.1304 0001548  62.6191 297.4983 15.69776405181740
STARLINK-2086           
1 47370U 21005X   24116.53684930  .00001076  00000+0  91089-4 0  9995
2 47370  53.0543 208.4089 0001426 104.9452 255.1695 15.06409225180648
STARLINK-2088           
1 47371U 21005Y   24117.51732205  .00002800  00000+0  20680-3 0  9998
2 47371  53.0548 244.0049 0001790 107.1194 252.9991 15.06396124180229
STARLINK-2089           
1 47372U 21005Z   24117.51227346  .00021786  00000+0  14755-2 0  9993
2 47372  53.0541 239.3492 0000992 106.9861 253.1237 15.06436452180284
STARLINK-2092           
1 47373U 21005AA  24117.51363590  .00015087  00000+0  10299-2 0  9992
2 47373  53.0547 244.0131 0003468 142.8613 217.2616 15.06387004180223
STARLINK-2093           
1 47374U 21005AB  24117.53203597  .00025808  00000+0  17449-2 0  9991
2 47374  53.0542 243.9103 0001352  98.1614 261.9528 15.06405768180226
STARLINK-2094           
1 47375U 21005AC  24117.53940915  .00015739  00000+0  10715-2 0  9995
2 47375  53.0541 243.9001 0000554  81.6234 278.4818 15.06457796181180
STARLINK-2096           
1 47376U 21005AD  24117.54311715  .00012492  00000+0  85570-3 0  9992
2 47376  53.0538 243.8859 0001290  90.4398 269.6739 15.06413621180221
STARLINK-2097           
1 47377U 21005AE  24117.52837268 -.00002253  00000+0 -13246-3 0  9994
2 47377  53.0541 243.9544 0001235  73.7808 286.3317 15.06383960180227
STARLINK-2098           
1 47378U 21005AF  24117.52101461  .00000714  00000+0  66843-4 0  9994
2 47378  53.0537 203.9875 0001314  58.4943 301.6174 15.06378319180789
STARLINK-2099           
1 47379U 21005AG  24117.52741938 -.00003760  00000+0 -23375-3 0  9992
2 47379  53.0549 203.9526 0001119  91.0231 269.0887 15.06388603180787
STARLINK-2100           
1 47380U 21005AH  24117.55696575 -.00000303  00000+0 -14782-5 0  9997
2 47380  53.0547 213.8376 0001349  82.2563 277.8579 15.06367660181590
STARLINK-2101           
1 47381U 21005AJ  24117.57306035  .00005430  00000+0  38307-3 0  9990
2 47381  53.0556 218.8462 0000809  69.7736 290.3340 15.06406066181549
STARLINK-2102           
1 47382U 21005AK  24117.48322986  .00000690  00000+0  65234-4 0  9997
2 47382  53.0553 214.1468 0001765 131.1965 228.9176 15.06391757181579
STARLINK-2103           
1 47383U 21005AL  24117.52841123 -.00004661  00000+0 -29443-3 0  9997
2 47383  53.0541 204.2362 0001148  93.5026 266.6094 15.06375494180784
STARLINK-2104           
1 47384U 21005AM  24117.53486222  .00001149  00000+0  96065-4 0  9995
2 47384  53.0568 214.1621 0001601 124.0546 236.0595 15.06385693181255
STARLINK-2105           
1 47385U 21005AN  24117.53114012 -.00000066  00000+0  14430-4 0  9995
2 47385  53.0541 213.9409 0001225  79.0274 281.0852 15.06384313181251
STARLINK-2106           
1 47386U 21005AP  24117.56062327  .00021494  00000+0  14580-2 0  9991
2 47386  53.0540 213.8146 0001365  94.0692 266.0453 15.06386060181277
STARLINK-2108           
1 47387U 21005AQ  24117.54680802  .00002950  00000+0  21682-3 0  9992
2 47387  53.0551 243.8718 0001476  79.0901 281.0254 15.06401607180222
STARLINK-2109           
1 47388U 21005AR  24117.36251761  .00001721  00000+0  13446-3 0  9995
2 47388  53.0546 244.6957 0001135  78.6462 281.4655 15.06388390181155
STARLINK-2110           
1 47389U 21005AS  24117.54030834 -.00000010  00000+0  18200-4 0  9997
2 47389  53.0546 223.8905 0000750 100.9851 259.1222 15.06428604180504
STARLINK-2111           
1 47390U 21005AT  24117.53574444  .00027771  00000+0  18753-2 0  9991
2 47390  53.0545 243.9235 0001401  97.1433 262.9715 15.06411916180227
STARLINK-2112           
1 47391U 21005AU  24117.47860197 -.00002291  00000+0 -13503-3 0  9999
2 47391  53.0557 214.1828 0001308  99.8242 260.2894 15.06374073181246
STARLINK-2113           
1 47392U 21005AV  24117.54588411  .00005621  00000+0  39606-3 0  9994
2 47392  53.0538 213.8744 0001289  96.5989 263.5147 15.06391942181251
STARLINK-2114           
1 47393U 21005AW  24117.50585519  .00039965  00000+0  26880-2 0  9994
2 47393  53.0524 189.4126 0001287  79.0714 281.0420 15.06382298180981
STARLINK-2115           
1 47394U 21005AX  24117.50397004  .00009683  00000+0  66802-3 0  9998
2 47394  53.0538 209.2270 0001043  74.4924 285.6180 15.06401753181320
STARLINK-2117           
1 47395U 21005AY  24117.52470237 -.00002303  00000+0 -13584-3 0  9994
2 47395  53.0546 203.9739 0001427 104.1366 255.9782 15.06373335180789
STARLINK-2118           
1 47396U 21005AZ  24117.46103168  .00013866  00000+0  11897-3 0  9993
2 47396  53.0530 191.0393 0001781 113.7035 246.4169 15.69738170181571
STARLINK-2119           
1 47397U 21005BA  24117.49889636  .00021434  00000+0  14534-2 0  9998
2 47397  53.0555 244.0873 0001549 111.9486 248.1667 15.06401705180228
STARLINK-2120           
1 47398U 21005BB  24117.53849778 -.00005813  00000+0 -37172-3 0  9996
2 47398  53.0533 213.9085 0001371 113.3180 246.7953 15.06392213181254
STARLINK-2121           
1 47399U 21005BC  24117.57447796 -.00004523  00000+0 -28511-3 0  9999
2 47399  53.0553 223.9901 0001243  88.9694 271.1437 15.06382944180506
STARLINK-2122           
1 47400U 21005BD  24117.53571392 -.00019983  00000+0 -13261-2 0  9999
2 47400  53.0532 203.9272 0001358  86.7552 273.3592 15.06407894180789
STARLINK-2123           
1 47401U 21005BE  24117.55326328 -.00000839  00000+0 -37490-4 0  9991
2 47401  53.0544 213.8503 0001340  81.3322 278.7819 15.06375137181266
STARLINK-2124           
1 47402U 21005BF  24117.57169239  .00003772  00000+0  27211-3 0  9996
2 47402  53.0534 213.7612 0000897  79.3819 280.7271 15.06380723181262
STARLINK-2127           
1 47403U 21005BG  24117.51272088 -.00000174  00000+0  72035-5 0  9998
2 47403  53.0552 214.0240 0001873  90.5503 269.5701 15.06378539181258
STARLINK-2128           
1 47404U 21005BH  24117.50901531 -.00007097  00000+0 -45804-3 0  9994
2 47404  53.0567 214.0493 0001841  90.1855 269.9345 15.06396083181258
STARLINK-2130           
1 47405U 21005BJ  24117.55786240  .00003323  00000+0  24185-3 0  9993
2 47405  53.0548 243.8194 0001029  98.7842 261.3263 15.06397415180225
STARLINK-2133           
1 47406U 21005BK  24117.52010149 -.00002078  00000+0 -12077-3 0  9994
2 47406  53.0535 213.9941 0001104  45.7730 314.3349 15.06367557181265
STARLINK-2134           
1 47407U 21005BL  24117.52746715  .00003356  00000+0  24414-3 0  9996
2 47407  53.0551 213.9534 0001658  96.6191 263.4987 15.06393600181251
STARLINK-2135           
1 47408U 21005BM  24117.56433394 -.00002140  00000+0 -12492-3 0  9992
2 47408  53.0551 213.7989 0001657 102.7191 257.3983 15.06366635181269
